{
"type": "FeatureCollection",
"name": "alexandria_hospitals",
"crs": { "type": "name", "properties": { "name": "urn:ogc:def:crs:OGC:1.3:CRS84" } },
"features": [
{ "type": "Feature", "properties": { "name": "مستشفى ماري مرقص" }, "geometry": { "type": "Point", "coordinates": [ 29.9917679, 31.2636249 ] } },
{ "type": "Feature", "properties": { "name": "Mostafa Kamel Hospital" }, "geometry": { "type": "Point", "coordinates": [ 29.9408078, 31.2258268 ] } },
{ "type": "Feature", "properties": { "name": "معهد البحوث الطبيه" }, "geometry": { "type": "Point", "coordinates": [ 29.9275717, 31.2052904 ] } },
{ "type": "Feature", "properties": { "name": "مستشفي المواساه" }, "geometry": { "type": "Point", "coordinates": [ 29.9286838, 31.2043914 ] } },
{ "type": "Feature", "properties": { "name": "مستشفى شرق المدينة" }, "geometry": { "type": "Point", "coordinates": [ 29.9923347, 31.2620088 ] } },
{ "type": "Feature", "properties": { "name": "مستشفى إبراهيم عبيد التخصصي" }, "geometry": { "type": "Point", "coordinates": [ 29.9580884, 31.2376371 ] } },
{ "type": "Feature", "properties": { "name": "مستشفى مركز القلب الدولي icc" }, "geometry": { "type": "Point", "coordinates": [ 29.9422849, 31.216873899999985 ] } },
{ "type": "Feature", "properties": { "name": "مستشفى الانبا تكلا التخصصى" }, "geometry": { "type": "Point", "coordinates": [ 29.9265176, 31.2109273 ] } },
{ "type": "Feature", "properties": { "name": "مستشفى النزهة للقلب والعناية المركزة" }, "geometry": { "type": "Point", "coordinates": [ 29.9168071, 31.1949882 ] } },
{ "type": "Feature", "properties": { "name": "Hadyclinic for Plastic Surgery and Burn" }, "geometry": { "type": "Point", "coordinates": [ 29.9492136, 31.2308163 ] } },
{ "type": "Feature", "properties": { "name": "مستشفى المدينة للمرأة" }, "geometry": { "type": "Point", "coordinates": [ 29.9385546, 31.2103065 ] } },
{ "type": "Feature", "properties": { "name": "مركز الصفوة للعيون" }, "geometry": { "type": "Point", "coordinates": [ 29.9406952, 31.2123904 ] } },
{ "type": "Feature", "properties": { "name": "الهيئة العامة للتأمين الصحي" }, "geometry": { "type": "Point", "coordinates": [ 29.9520648, 31.2337129 ] } },
{ "type": "Feature", "properties": { "name": "مستشفى النقراشي" }, "geometry": { "type": "Point", "coordinates": [ 29.8815197, 31.2083488 ] } },
{ "type": "Feature", "properties": { "name": "مستشفى بدراوى" }, "geometry": { "type": "Point", "coordinates": [ 29.941556, 31.2168583 ] } },
{ "type": "Feature", "properties": { "name": null }, "geometry": { "type": "Point", "coordinates": [ 29.9879757, 31.257719 ] } },
{ "type": "Feature", "properties": { "name": "مستشفى الشرطه" }, "geometry": { "type": "Point", "coordinates": [ 29.9300207, 31.1743125 ] } },
{ "type": "Feature", "properties": { "name": "مستشفى المدينة المنورة" }, "geometry": { "type": "Point", "coordinates": [ 29.9951977, 31.2630983 ] } },
{ "type": "Feature", "properties": { "name": "وحدة صحة الاسرة بسيدي بشر بحري - منطقة المنتزه الطبية" }, "geometry": { "type": "Point", "coordinates": [ 29.9912443, 31.2607607 ] } },
{ "type": "Feature", "properties": { "name": "ASM E.2" }, "geometry": { "type": "Point", "coordinates": [ 29.9041544, 31.2017726 ] } },
{ "type": "Feature", "properties": { "name": "دكتور ياسر يحيي" }, "geometry": { "type": "Point", "coordinates": [ 29.9462547, 31.2139708 ] } },
{ "type": "Feature", "properties": { "name": "الوحدة الصحية أبيس 7" }, "geometry": { "type": "Point", "coordinates": [ 29.955702, 31.1484562 ] } },
{ "type": "Feature", "properties": { "name": "عيادات زهراء السيوف التخصصية" }, "geometry": { "type": "Point", "coordinates": [ 29.9980108, 31.241280199999977 ] } },
{ "type": "Feature", "properties": { "name": "عيادات السلامة التخصصية" }, "geometry": { "type": "Point", "coordinates": [ 29.9999766, 31.2419168 ] } },
{ "type": "Feature", "properties": { "name": "عيادة د سامح فتحي" }, "geometry": { "type": "Point", "coordinates": [ 29.9312484, 31.2100021 ] } },
{ "type": "Feature", "properties": { "name": "الجمعية الشرعية" }, "geometry": { "type": "Point", "coordinates": [ 29.9933271, 31.2397069 ] } },
{ "type": "Feature", "properties": { "name": "عيادة المنشية للتأمين على الطلاب والمواليد - منطقة وسط الطبية" }, "geometry": { "type": "Point", "coordinates": [ 29.8937999, 31.1967645 ] } },
{ "type": "Feature", "properties": { "name": "مستشفى الفتح" }, "geometry": { "type": "Point", "coordinates": [ 29.9639451, 31.2343075 ] } },
{ "type": "Feature", "properties": { "name": "مستشفى البترول" }, "geometry": { "type": "Point", "coordinates": [ 29.9626566, 31.2345278 ] } },
{ "type": "Feature", "properties": { "name": "مستشفى البدراوي ٢" }, "geometry": { "type": "Point", "coordinates": [ 29.9850196, 31.2553539 ] } },
{ "type": "Feature", "properties": { "name": "صحة فلمنج" }, "geometry": { "type": "Point", "coordinates": [ 29.9661419, 31.2446944 ] } },
{ "type": "Feature", "properties": { "name": "مستشفى فكتوريا" }, "geometry": { "type": "Point", "coordinates": [ 29.9821849, 31.2439359 ] } },
{ "type": "Feature", "properties": { "name": "مستوصف لواء الإسلام" }, "geometry": { "type": "Point", "coordinates": [ 29.983127, 31.2442821 ] } },
{ "type": "Feature", "properties": { "name": "مستشفى لواء الإسلام" }, "geometry": { "type": "Point", "coordinates": [ 29.9867739, 31.2442273 ] } },
{ "type": "Feature", "properties": { "name": "مستشفى طلبة جامعة الإسكندرية" }, "geometry": { "type": "Point", "coordinates": [ 29.9199829, 31.2028128 ] } },
{ "type": "Feature", "properties": { "name": "مركز عناية الطبي" }, "geometry": { "type": "Point", "coordinates": [ 30.0006714, 31.239826199999985 ] } },
{ "type": "Feature", "properties": { "name": "عيادات الأندلس الحديثة التخصصية" }, "geometry": { "type": "Point", "coordinates": [ 30.0016332, 31.2389199 ] } },
{ "type": "Feature", "properties": { "name": "مستشفى سيدي جابر التخصصي" }, "geometry": { "type": "Point", "coordinates": [ 29.9414862, 31.219401 ] } },
{ "type": "Feature", "properties": { "name": "عيادات الحسن التخصصية" }, "geometry": { "type": "Point", "coordinates": [ 30.0030899, 31.2416301 ] } },
{ "type": "Feature", "properties": { "name": "وحدة صحة الأسرة - دربالة" }, "geometry": { "type": "Point", "coordinates": [ 29.984435, 31.2508335 ] } },
{ "type": "Feature", "properties": { "name": "Ahmed Maher Hospital" }, "geometry": { "type": "Point", "coordinates": [ 29.9029881, 31.1911004 ] } },
{ "type": "Feature", "properties": { "name": "عيادات فور كيدز لطب الأطفال" }, "geometry": { "type": "Point", "coordinates": [ 29.9993576, 31.239903 ] } },
{ "type": "Feature", "properties": { "name": "الهلال الأحمر المصري - فرع الإسكندرية - باكوس" }, "geometry": { "type": "Point", "coordinates": [ 29.9703691, 31.2320812 ] } },
{ "type": "Feature", "properties": { "name": "مستشفى لوران" }, "geometry": { "type": "Point", "coordinates": [ 29.9736309, 31.247892199999988 ] } },
{ "type": "Feature", "properties": { "name": "مستشفى سموحة الدولي" }, "geometry": { "type": "Point", "coordinates": [ 29.9348175, 31.2083152 ] } },
{ "type": "Feature", "properties": { "name": "مركز صحة الأسرة بسموحة" }, "geometry": { "type": "Point", "coordinates": [ 29.9382112, 31.2070386 ] } },
{ "type": "Feature", "properties": { "name": "مستشفى الإقبال" }, "geometry": { "type": "Point", "coordinates": [ 29.9753775, 31.251513 ] } },
{ "type": "Feature", "properties": { "name": "مستشفى زمزم" }, "geometry": { "type": "Point", "coordinates": [ 29.9125867, 31.1952169 ] } },
{ "type": "Feature", "properties": { "name": "د. محمد شفيق شاهين" }, "geometry": { "type": "Point", "coordinates": [ 29.9326961, 31.2197891 ] } },
{ "type": "Feature", "properties": { "name": "وحدة صحة أسرة دنا الجديدة (الوطنية) - منطقة شرق الطبية" }, "geometry": { "type": "Point", "coordinates": [ 29.9914857, 31.2297019 ] } },
{ "type": "Feature", "properties": { "name": "مستشفى سهلا الجديدة" }, "geometry": { "type": "Point", "coordinates": [ 29.9085547, 31.1910639 ] } },
{ "type": "Feature", "properties": { "name": "دكتور ممدوح حسين لطب الاطفال" }, "geometry": { "type": "Point", "coordinates": [ 29.9531454, 31.2072614 ] } },
{ "type": "Feature", "properties": { "name": "Jamalek Skin Center Smouha" }, "geometry": { "type": "Point", "coordinates": [ 29.9447672, 31.2154155 ] } },
{ "type": "Feature", "properties": { "name": "مستشفي اسكندرية الدولي" }, "geometry": { "type": "Point", "coordinates": [ 29.941974, 31.215836900000014 ] } },
{ "type": "Feature", "properties": { "name": null }, "geometry": { "type": "Point", "coordinates": [ 29.9077667, 31.2043901 ] } },
{ "type": "Feature", "properties": { "name": null }, "geometry": { "type": "Point", "coordinates": [ 29.9077101, 31.204220099999986 ] } },
{ "type": "Feature", "properties": { "name": null }, "geometry": { "type": "Point", "coordinates": [ 29.9079332, 31.203717 ] } },
{ "type": "Feature", "properties": { "name": null }, "geometry": { "type": "Point", "coordinates": [ 29.9077741, 31.2038459 ] } },
{ "type": "Feature", "properties": { "name": "النصر الشاملة" }, "geometry": { "type": "Point", "coordinates": [ 29.8708821, 31.1698343 ] } },
{ "type": "Feature", "properties": { "name": "المستشفى الألماني  مركز القلب الألماني" }, "geometry": { "type": "Point", "coordinates": [ 29.9576749, 31.2370413 ] } },
{ "type": "Feature", "properties": { "name": "دكتور اميل عطالله" }, "geometry": { "type": "Point", "coordinates": [ 30.0073899, 31.2627543 ] } },
{ "type": "Feature", "properties": { "name": "المسشتفى التخصصي لامراض الجهاز الهضمي والكبد" }, "geometry": { "type": "Point", "coordinates": [ 29.96397, 31.2392452 ] } },
{ "type": "Feature", "properties": { "name": "معمل المبرة جليم لتحاليل" }, "geometry": { "type": "Point", "coordinates": [ 29.9620771, 31.2377873 ] } },
{ "type": "Feature", "properties": { "name": "مبرة العصافرة للتحاليل جليم" }, "geometry": { "type": "Point", "coordinates": [ 29.9630934, 31.2385483 ] } },
{ "type": "Feature", "properties": { "name": "عياده الدكتور اميل عطالله" }, "geometry": { "type": "Point", "coordinates": [ 30.0060922, 31.2640047 ] } },
{ "type": "Feature", "properties": { "name": "Alsalama Hospital" }, "geometry": { "type": "Point", "coordinates": [ 29.9101858, 31.201820500000011 ] } },
{ "type": "Feature", "properties": { "name": "Department for Internal Medicine" }, "geometry": { "type": "Point", "coordinates": [ 29.9059535, 31.2025983 ] } },
{ "type": "Feature", "properties": { "name": null }, "geometry": { "type": "Point", "coordinates": [ 29.9097886, 31.2033913 ] } },
{ "type": "Feature", "properties": { "name": "مستشفي الإمام" }, "geometry": { "type": "Point", "coordinates": [ 30.0062183, 31.2749094 ] } },
{ "type": "Feature", "properties": { "name": null }, "geometry": { "type": "Point", "coordinates": [ 29.9054701, 31.200857 ] } },
{ "type": "Feature", "properties": { "name": "مستشفى إليت" }, "geometry": { "type": "Point", "coordinates": [ 29.943345, 31.1717453 ] } },
{ "type": "Feature", "properties": { "name": "دنتو سكان" }, "geometry": { "type": "Point", "coordinates": [ 30.0103101, 31.2614407 ] } },
{ "type": "Feature", "properties": { "name": "دكتور بولا حلمي عبد ربه" }, "geometry": { "type": "Point", "coordinates": [ 30.0072079, 31.2628806 ] } },
{ "type": "Feature", "properties": { "name": "دكتور كيرلس فوزي" }, "geometry": { "type": "Point", "coordinates": [ 30.0114938, 31.262096 ] } },
{ "type": "Feature", "properties": { "name": "المركز الطبي الجديد" }, "geometry": { "type": "Point", "coordinates": [ 29.8982444, 31.1775577 ] } },
{ "type": "Feature", "properties": { "name": "مستشفى جمال حمادة الخيري المركزي" }, "geometry": { "type": "Point", "coordinates": [ 29.899483, 31.1749305 ] } },
{ "type": "Feature", "properties": { "name": "مستشفى الجمهورية العام" }, "geometry": { "type": "Point", "coordinates": [ 29.9048119, 31.181586400000011 ] } },
{ "type": "Feature", "properties": { "name": "مستشفى المعمورة للطب النفسي وعلاج الادمان" }, "geometry": { "type": "Point", "coordinates": [ 30.0257108, 31.270139 ] } },
{ "type": "Feature", "properties": { "name": null }, "geometry": { "type": "Point", "coordinates": [ 30.025631988259608, 31.270237724368382 ] } },
{ "type": "Feature", "properties": { "name": "مستشفى الشاطبي الجامعي" }, "geometry": { "type": "Point", "coordinates": [ 29.911261252900324, 31.209167129774627 ] } },
{ "type": "Feature", "properties": { "name": "مستشفي الرمد العام" }, "geometry": { "type": "Point", "coordinates": [ 29.916151234767305, 31.197648564065997 ] } },
{ "type": "Feature", "properties": { "name": "مستوصف الغفران" }, "geometry": { "type": "Point", "coordinates": [ 29.781823548604169, 31.125301112188748 ] } },
{ "type": "Feature", "properties": { "name": "المستشفى البحري العام" }, "geometry": { "type": "Point", "coordinates": [ 29.873234123048174, 31.201361954448938 ] } },
{ "type": "Feature", "properties": { "name": "المستشفى الأميري الجديدة" }, "geometry": { "type": "Point", "coordinates": [ 29.946460118189538, 31.207083510341203 ] } },
{ "type": "Feature", "properties": { "name": "مستشفى مصطفى كامل العسكري" }, "geometry": { "type": "Point", "coordinates": [ 29.940735425962956, 31.22575923010875 ] } },
{ "type": "Feature", "properties": { "name": null }, "geometry": { "type": "Point", "coordinates": [ 29.930016499768033, 31.174315802881523 ] } },
{ "type": "Feature", "properties": { "name": "مستشفى القبارى" }, "geometry": { "type": "Point", "coordinates": [ 29.881118431372204, 31.170696845962368 ] } },
{ "type": "Feature", "properties": { "name": "مستشفى الثغر التخصصي" }, "geometry": { "type": "Point", "coordinates": [ 29.980047466086535, 31.246424507424482 ] } },
{ "type": "Feature", "properties": { "name": "مستشفي جمال عبد الناصر" }, "geometry": { "type": "Point", "coordinates": [ 29.926306566168066, 31.204361861390041 ] } },
{ "type": "Feature", "properties": { "name": "مستشفي أبو قير المركزي" }, "geometry": { "type": "Point", "coordinates": [ 30.067239335260211, 31.313446566692612 ] } },
{ "type": "Feature", "properties": { "name": "معمل الامين للتحاليل الطبية" }, "geometry": { "type": "Point", "coordinates": [ 29.93924280976508, 31.22237082813789 ] } },
{ "type": "Feature", "properties": { "name": "مركز الكلى والمسالك البولية - مستشفى اليسر" }, "geometry": { "type": "Point", "coordinates": [ 29.933842244597933, 31.220937646960433 ] } },
{ "type": "Feature", "properties": { "name": "مستشفى الشفاء سيدي جابر" }, "geometry": { "type": "Point", "coordinates": [ 29.93988352059521, 31.223628673675183 ] } },
{ "type": "Feature", "properties": { "name": null }, "geometry": { "type": "Point", "coordinates": [ 30.066876130568915, 31.310340912442978 ] } }
]
}
