{
"type": "FeatureCollection",
"name": "alexandria_h3_grid",
"crs": { "type": "name", "properties": { "name": "urn:ogc:def:crs:OGC:1.3:CRS84" } },
"features": [
{ "type": "Feature", "properties": { "h3_index": "873e66d33ffffff", "center_lat": 31.116220600537272, "center_lon": 30.085147505624132, "elevation_m": -1.0 }, "geometry": { "type": "Polygon", "coordinates": [ [ [ 30.072072253666907, 31.124293037501769 ], [ 30.070542259858893, 31.110553058702777 ], [ 30.083615955463809, 31.10248086188739 ], [ 30.098220154584762, 31.108147077799032 ], [ 30.099753660998275, 31.121886171452292 ], [ 30.086679456146651, 31.129959934672957 ], [ 30.072072253666907, 31.124293037501769 ] ] ] } },
{ "type": "Feature", "properties": { "h3_index": "873e66d10ffffff", "center_lat": 31.075000177412971, "center_lon": 30.080554055610822, "elevation_m": 2.0 }, "geometry": { "type": "Polygon", "coordinates": [ [ [ 30.067483471665881, 31.083071891578445 ], [ 30.065954676971845, 31.069330706437661 ], [ 30.079023705608929, 31.061259234773093 ], [ 30.093622038986091, 31.066927380825199 ], [ 30.095154343733476, 31.080667680893384 ], [ 30.08208480551092, 31.088740720315222 ], [ 30.067483471665881, 31.083071891578445 ] ] ] } },
{ "type": "Feature", "properties": { "h3_index": "873f5ba4cffffff", "center_lat": 31.123414167084142, "center_lon": 30.002091563898041, "elevation_m": -2.0 }, "geometry": { "type": "Polygon", "coordinates": [ [ [ 29.989005388854682, 31.131479351325108 ], [ 29.987485942975926, 31.11773673465164 ], [ 30.000570557863877, 31.109671786203947 ], [ 30.015175141898204, 31.11534789030982 ], [ 30.016698105434504, 31.129089630620697 ], [ 30.003612967736785, 31.137156143522809 ], [ 29.989005388854682, 31.131479351325108 ] ] ] } },
{ "type": "Feature", "properties": { "h3_index": "873e66d36ffffff", "center_lat": 31.140434647365094, "center_lon": 30.045913943102924, "elevation_m": -3.0 }, "geometry": { "type": "Polygon", "coordinates": [ [ [ 30.032830885669618, 31.14850381689196 ], [ 30.031305565773604, 31.134763124350808 ], [ 30.044387064427166, 31.126694191620231 ], [ 30.058994399297813, 31.13236438700639 ], [ 30.060523235609359, 31.146104198755246 ], [ 30.047441221094697, 31.154174696244233 ], [ 30.032830885669618, 31.14850381689196 ] ] ] } },
{ "type": "Feature", "properties": { "h3_index": "873f5ba72ffffff", "center_lat": 31.135289034356639, "center_lon": 29.86359014375175, "elevation_m": -4.0 }, "geometry": { "type": "Polygon", "coordinates": [ [ [ 29.85048586867164, 31.143342069800905 ], [ 29.848984036123415, 31.129595115318313 ], [ 29.862086744744012, 31.121542308390648 ], [ 29.876691831801363, 31.12723489514045 ], [ 29.878197190340199, 31.140980987934224 ], [ 29.865093936283117, 31.149035356003502 ], [ 29.85048586867164, 31.143342069800905 ] ] ] } },
{ "type": "Feature", "properties": { "h3_index": "873f59684ffffff", "center_lat": 31.28588805907421, "center_lon": 30.048106053291345, "elevation_m": -1.0 }, "geometry": { "type": "Polygon", "coordinates": [ [ [ 30.035004780064966, 31.293958449762098 ], [ 30.033477026637797, 31.28022167745825 ], [ 30.046576736772693, 31.272151514612318 ], [ 30.061204717758883, 31.27781656468796 ], [ 30.062735997421008, 31.291552457421158 ], [ 30.049635770323999, 31.299624179984086 ], [ 30.035004780064966, 31.293958449762098 ] ] ] } },
{ "type": "Feature", "properties": { "h3_index": "873e66d13ffffff", "center_lat": 31.053186681803325, "center_lon": 30.092090134484589, "elevation_m": -1.0 }, "geometry": { "type": "Polygon", "coordinates": [ [ [ 30.079023705608929, 31.061259234773093 ], [ 30.077493755350737, 31.047517893988282 ], [ 30.09055863007438, 31.039445585420552 ], [ 30.105153963015795, 31.045113049213718 ], [ 30.10668742120853, 31.058853503500668 ], [ 30.093622038986091, 31.066927380825199 ], [ 30.079023705608929, 31.061259234773093 ] ] ] } },
{ "type": "Feature", "properties": { "h3_index": "873f5ba09ffffff", "center_lat": 31.115847757325579, "center_lon": 29.847482596593338, "elevation_m": -3.0 }, "geometry": { "type": "Polygon", "coordinates": [ [ [ 29.834378869262874, 31.12389923173993 ], [ 29.832879389156258, 31.110151242866287 ], [ 29.845981549929238, 31.102099997416239 ], [ 29.860583739107536, 31.107795179698829 ], [ 29.862086744744012, 31.121542308390648 ], [ 29.848984036123415, 31.129595115318313 ], [ 29.834378869262874, 31.12389923173993 ] ] ] } },
{ "type": "Feature", "properties": { "h3_index": "873f5ba75ffffff", "center_lat": 31.174160672681953, "center_lon": 29.895820994081625, "elevation_m": 5.0 }, "geometry": { "type": "Polygon", "coordinates": [ [ [ 29.882715630741636, 31.18221682917692 ], [ 29.881209089657656, 31.168471956545147 ], [ 29.894312886737374, 31.160416027671321 ], [ 29.908923765961095, 31.166103411299076 ], [ 29.91043383395181, 31.179847419230821 ], [ 29.897329496266, 31.187904908571074 ], [ 29.882715630741636, 31.18221682917692 ] ] ] } },
{ "type": "Feature", "properties": { "h3_index": "873f5ba49ffffff", "center_lat": 31.099212065900762, "center_lon": 30.041334504406109, "elevation_m": -2.0 }, "geometry": { "type": "Polygon", "coordinates": [ [ [ 30.028256122264136, 31.10728052268702 ], [ 30.026731998342303, 31.093538616748667 ], [ 30.0398088227522, 31.08547039911052 ], [ 30.05441028773572, 31.091142521636151 ], [ 30.055937925515476, 31.104883546854872 ], [ 30.042860584913008, 31.112953330601435 ], [ 30.028256122264136, 31.10728052268702 ] ] ] } },
{ "type": "Feature", "properties": { "h3_index": "873e66d16ffffff", "center_lat": 31.077401095111856, "center_lon": 30.052883049157714, "elevation_m": -2.0 }, "geometry": { "type": "Polygon", "coordinates": [ [ [ 30.0398088227522, 31.08547039911052 ], [ 30.038283539797106, 31.071728331823294 ], [ 30.051356209627173, 31.063659268874595 ], [ 30.065954676971845, 31.069330706437661 ], [ 30.067483471665881, 31.083071891578445 ], [ 30.05441028773572, 31.091142521636151 ], [ 30.0398088227522, 31.08547039911052 ] ] ] } },
{ "type": "Feature", "properties": { "h3_index": "873f5ba6cffffff", "center_lat": 31.186445749843688, "center_lon": 29.995087148452381, "elevation_m": -3.0 }, "geometry": { "type": "Polygon", "coordinates": [ [ [ 29.98199212959976, 31.194510770725117 ], [ 29.980472655345913, 31.18076955296667 ], [ 29.993566111832738, 31.172704763624061 ], [ 30.008179567620278, 31.178379630269145 ], [ 30.009702564217502, 31.192119973022553 ], [ 29.996608583142198, 31.200186324470859 ], [ 29.98199212959976, 31.194510770725117 ] ] ] } },
{ "type": "Feature", "properties": { "h3_index": "873e66d30ffffff", "center_lat": 31.138032611002728, "center_lon": 30.073602647488727, "elevation_m": -2.0 }, "geometry": { "type": "Polygon", "coordinates": [ [ [ 30.060523235609359, 31.146104198755246 ], [ 30.058994399297813, 31.13236438700639 ], [ 30.072072253666907, 31.124293037501769 ], [ 30.086679456146651, 31.129959934672957 ], [ 30.088211807186166, 31.143698862702788 ], [ 30.075133441479085, 31.151771777614044 ], [ 30.060523235609359, 31.146104198755246 ] ] ] } },
{ "type": "Feature", "properties": { "h3_index": "873f5ba52ffffff", "center_lat": 31.072246504551529, "center_lon": 29.870674334886242, "elevation_m": -3.0 }, "geometry": { "type": "Polygon", "coordinates": [ [ [ 29.857578907339185, 31.080299720512279 ], [ 29.856077080902946, 31.066551393205465 ], [ 29.869170944205656, 31.058498410019581 ], [ 29.883767178016868, 31.064192190983505 ], [ 29.885272525757276, 31.077939655244638 ], [ 29.872178118833816, 31.085994201923601 ], [ 29.857578907339185, 31.080299720512279 ] ] ] } },
{ "type": "Feature", "properties": { "h3_index": "873f5ba0cffffff", "center_lat": 31.139998864204106, "center_lon": 29.808163662579027, "elevation_m": 0.0 }, "geometry": { "type": "Polygon", "coordinates": [ [ [ 29.795052184441918, 31.148047018890622 ], [ 29.793557408831017, 31.134298349852106 ], [ 29.806667317999121, 31.126250420765654 ], [ 29.821272557722281, 31.131949601260015 ], [ 29.82277086262641, 31.145697414491416 ], [ 29.809660398963842, 31.153746903372856 ], [ 29.795052184441918, 31.148047018890622 ] ] ] } },
{ "type": "Feature", "properties": { "h3_index": "873e66da5ffffff", "center_lat": 31.057985865631935, "center_lon": 30.036758655386727, "elevation_m": 0.0 }, "geometry": { "type": "Polygon", "coordinates": [ [ [ 30.023684945394056, 31.066053602621722 ], [ 30.022162016059731, 31.052310497619001 ], [ 30.03523416936703, 31.044243002129566 ], [ 30.049829768989891, 31.049917044517262 ], [ 30.051356209627173, 31.063659268874595 ], [ 30.038283539797106, 31.071728331823294 ], [ 30.023684945394056, 31.066053602621722 ] ] ] } },
{ "type": "Feature", "properties": { "h3_index": "873f5bae1ffffff", "center_lat": 31.052802669548676, "center_lon": 29.854575647229215, "elevation_m": -2.0 }, "geometry": { "type": "Polygon", "coordinates": [ [ [ 29.841480765611966, 31.060854322127703 ], [ 29.839981288891348, 31.047104970492384 ], [ 29.853074606165986, 31.039053551136526 ], [ 29.86766794663987, 31.044749919922165 ], [ 29.869170944205656, 31.058498410019581 ], [ 29.856077080902946, 31.066551393205465 ], [ 29.841480765611966, 31.060854322127703 ] ] ] } },
{ "type": "Feature", "properties": { "h3_index": "873f5ba55ffffff", "center_lat": 31.11112331212264, "center_lon": 29.902887444395542, "elevation_m": -2.0 }, "geometry": { "type": "Polygon", "coordinates": [ [ [ 29.889790932216755, 31.119179653834884 ], [ 29.888284402704748, 31.105433388264121 ], [ 29.901379350838958, 31.097377278430049 ], [ 29.915981367736624, 31.10306587168651 ], [ 29.917491419465463, 31.116811271198756 ], [ 29.904395932533223, 31.124868943848885 ], [ 29.889790932216755, 31.119179653834884 ] ] ] } },
{ "type": "Feature", "properties": { "h3_index": "873f596b3ffffff", "center_lat": 31.268882968042707, "center_lon": 30.004221733041817, "elevation_m": 7.0 }, "geometry": { "type": "Polygon", "coordinates": [ [ [ 29.991117332620171, 31.276949361698904 ], [ 29.98959546973899, 31.263210642057565 ], [ 30.002698305687357, 31.255144475238119 ], [ 30.017323528917181, 31.260815468980923 ], [ 30.018848919281229, 31.274553313478854 ], [ 30.005745559392476, 31.282621039712637 ], [ 29.991117332620171, 31.276949361698904 ] ] ] } },
{ "type": "Feature", "properties": { "h3_index": "873f59690ffffff", "center_lat": 31.227666232583925, "center_lon": 29.999652647349048, "elevation_m": -2.0 }, "geometry": { "type": "Polygon", "coordinates": [ [ [ 29.986552939292768, 31.235731943379189 ], [ 29.985032271419115, 31.22199196752225 ], [ 29.998130416056348, 31.213926485914541 ], [ 30.012749753291445, 31.219599419739325 ], [ 30.014273946076898, 31.233338520521276 ], [ 30.001175277174589, 31.241405562888538 ], [ 29.986552939292768, 31.235731943379189 ] ] ] } },
{ "type": "Feature", "properties": { "h3_index": "873f5bae4ffffff", "center_lat": 31.076954329419141, "center_lon": 29.815283258176631, "elevation_m": -3.0 }, "geometry": { "type": "Polygon", "coordinates": [ [ [ 29.8021806335713, 31.085002680769769 ], [ 29.800685854693899, 31.071252636191517 ], [ 29.813786912549038, 31.063204514700544 ], [ 29.828383302392528, 31.068904875978184 ], [ 29.829881605872973, 31.082654063391285 ], [ 29.816779995356054, 31.090703747028734 ], [ 29.8021806335713, 31.085002680769769 ] ] ] } },
{ "type": "Feature", "properties": { "h3_index": "873f5ba58ffffff", "center_lat": 31.06514187988336, "center_lon": 29.953733257060708, "elevation_m": -3.0 }, "geometry": { "type": "Polygon", "coordinates": [ [ [ 29.940648664649213, 31.073202370035943 ], [ 29.939136279272777, 31.059456640677432 ], [ 29.952219311211667, 31.051396387666259 ], [ 29.966815259048953, 31.057080298858505 ], [ 29.968331160748512, 31.070825156363593 ], [ 29.955247598742659, 31.078886974864741 ], [ 29.940648664649213, 31.073202370035943 ] ] ] } },
{ "type": "Feature", "properties": { "h3_index": "873f59681ffffff", "center_lat": 31.261670271572783, "center_lon": 30.087394218060069, "elevation_m": 1.0 }, "geometry": { "type": "Polygon", "coordinates": [ [ [ 30.074300772877908, 31.269743968291415 ], [ 30.072768332613947, 31.256007882867436 ], [ 30.085860217142489, 31.24793441734429 ], [ 30.100485052718351, 31.253595476220351 ], [ 30.10202101539064, 31.267330677717322 ], [ 30.088928620542116, 31.275405704599301 ], [ 30.074300772877908, 31.269743968291415 ] ] ] } },
{ "type": "Feature", "properties": { "h3_index": "873f59693ffffff", "center_lat": 31.205859903376226, "center_lon": 30.011225959389783, "elevation_m": -1.0 }, "geometry": { "type": "Polygon", "coordinates": [ [ [ 29.998130416056348, 31.213926485914541 ], [ 29.996608583142198, 31.200186324470859 ], [ 30.009702564217502, 31.192119973022553 ], [ 30.024318900826465, 31.197792221593431 ], [ 30.025844256526906, 31.211531506531706 ], [ 30.012749753291445, 31.219599419739325 ], [ 29.998130416056348, 31.213926485914541 ] ] ] } },
{ "type": "Feature", "properties": { "h3_index": "873f5ba46ffffff", "center_lat": 31.130556267935678, "center_lon": 29.919001866280073, "elevation_m": -4.0 }, "geometry": { "type": "Polygon", "coordinates": [ [ [ 29.905904815404782, 31.138614172015604 ], [ 29.904395932533223, 31.124868943848885 ], [ 29.917491419465463, 31.116811271198756 ], [ 29.932096326106254, 31.122497264575088 ], [ 29.933608731648285, 31.136241625178236 ], [ 29.920512708333423, 31.14430086030432 ], [ 29.905904815404782, 31.138614172015604 ] ] ] } },
{ "type": "Feature", "properties": { "h3_index": "873f59696ffffff", "center_lat": 31.230056346513326, "center_lon": 29.971931526072353, "elevation_m": 18.0 }, "geometry": { "type": "Polygon", "coordinates": [ [ [ 29.958828180611661, 31.238119621201879 ], [ 29.95731103932982, 31.224378773201572 ], [ 29.970412820103519, 31.216315726246108 ], [ 29.985032271419115, 31.22199196752225 ], [ 29.986552939292768, 31.235731943379189 ], [ 29.973450629716982, 31.243796550438848 ], [ 29.958828180611661, 31.238119621201879 ] ] ] } },
{ "type": "Feature", "properties": { "h3_index": "873f5ba69ffffff", "center_lat": 31.162244101783553, "center_lon": 30.034356604532206, "elevation_m": -2.0 }, "geometry": { "type": "Polygon", "coordinates": [ [ [ 30.021269386510696, 31.170312413687167 ], [ 30.019745227586586, 31.156571893901191 ], [ 30.032830885669618, 31.14850381689196 ], [ 30.047441221094697, 31.154174696244233 ], [ 30.048968898556968, 31.167914336666144 ], [ 30.035882722515765, 31.175983977434111 ], [ 30.021269386510696, 31.170312413687167 ] ] ] } },
{ "type": "Feature", "properties": { "h3_index": "873f5ba5effffff", "center_lat": 31.067515802252665, "center_lon": 29.9260506583115, "elevation_m": -3.0 }, "geometry": { "type": "Polygon", "coordinates": [ [ [ 29.912962448924745, 31.075573870709249 ], [ 29.911453581536147, 31.061827272431454 ], [ 29.924540229191326, 31.053769439661618 ], [ 29.939136279272777, 31.059456640677432 ], [ 29.940648664649213, 31.073202370035943 ], [ 29.927561482410187, 31.081261767633201 ], [ 29.912962448924745, 31.075573870709249 ] ] ] } },
{ "type": "Feature", "properties": { "h3_index": "873f5ba18ffffff", "center_lat": 31.081639251967395, "center_lon": 29.75987752586628, "elevation_m": 2.0 }, "geometry": { "type": "Polygon", "coordinates": [ [ [ 29.746767725362666, 31.089682726622687 ], [ 29.745280000615548, 31.075930976544459 ], [ 29.758388231870097, 31.067887728830254 ], [ 29.772984750025426, 31.073594670744317 ], [ 29.774476002656922, 31.087345569544851 ], [ 29.761367209695532, 31.095390378046641 ], [ 29.746767725362666, 31.089682726622687 ] ] ] } },
{ "type": "Feature", "properties": { "h3_index": "873f59699ffffff", "center_lat": 31.198650481939755, "center_lon": 30.094345219613324, "elevation_m": -1.0 }, "geometry": { "type": "Polygon", "coordinates": [ [ [ 30.081260622222722, 31.20672434334001 ], [ 30.079728226009586, 31.192986820198026 ], [ 30.092811264956065, 31.184913194244565 ], [ 30.107427209143836, 31.190575528062801 ], [ 30.108963123074673, 31.204312165917464 ], [ 30.095879575562858, 31.212387355574826 ], [ 30.081260622222722, 31.20672434334001 ] ] ] } },
{ "type": "Feature", "properties": { "h3_index": "873f5ba61ffffff", "center_lat": 31.188833243049572, "center_lon": 29.96737660057736, "elevation_m": -2.0 }, "geometry": { "type": "Polygon", "coordinates": [ [ [ 29.954277948122357, 31.196895832187533 ], [ 29.952761997889166, 31.183153742355888 ], [ 29.965859086712243, 31.175091383302433 ], [ 29.980472655345913, 31.18076955296667 ], [ 29.98199212959976, 31.194510770725117 ], [ 29.968894511656497, 31.20257469122787 ], [ 29.954277948122357, 31.196895832187533 ] ] ] } },
{ "type": "Feature", "properties": { "h3_index": "873f5ba1bffffff", "center_lat": 31.05984337567056, "center_lon": 29.771493887581446, "elevation_m": 2.0 }, "geometry": { "type": "Polygon", "coordinates": [ [ [ 29.758388231870097, 31.067887728830254 ], [ 29.756899327555999, 31.054135810230292 ], [ 29.770003415173882, 31.046091685918682 ], [ 29.784596967137613, 31.051797918745009 ], [ 29.786089397228007, 31.065548984633317 ], [ 29.772984750025426, 31.073594670744317 ], [ 29.758388231870097, 31.067887728830254 ] ] ] } },
{ "type": "Feature", "properties": { "h3_index": "873f5969cffffff", "center_lat": 31.222868781960482, "center_lon": 30.055083606203823, "elevation_m": 0.0 }, "geometry": { "type": "Polygon", "coordinates": [ [ [ 30.041991188750114, 31.230939355806008 ], [ 30.040463472737255, 31.217201133028894 ], [ 30.053554329312988, 31.2091307912773 ], [ 30.068173417557343, 31.214797110576047 ], [ 30.069704655108854, 31.228534452420231 ], [ 30.056613283338823, 31.236606356232887 ], [ 30.041991188750114, 31.230939355806008 ] ] ] } },
{ "type": "Feature", "properties": { "h3_index": "873f5ba64ffffff", "center_lat": 31.213017700888422, "center_lon": 29.928072852540861, "elevation_m": 22.0 }, "geometry": { "type": "Polygon", "coordinates": [ [ [ 29.914966410611576, 31.221076977081527 ], [ 29.913455156123831, 31.207334203713742 ], [ 29.926560031996463, 31.19927515424623 ], [ 29.941176698577546, 31.204957318695485 ], [ 29.942691480880974, 31.218699224355667 ], [ 29.929586069243481, 31.226759833610203 ], [ 29.914966410611576, 31.221076977081527 ] ] ] } },
{ "type": "Feature", "properties": { "h3_index": "873f5ba41ffffff", "center_lat": 31.125800589999908, "center_lon": 29.974398732444708, "elevation_m": -4.0 }, "geometry": { "type": "Polygon", "coordinates": [ [ [ 29.961308926863811, 31.133863350564337 ], [ 29.95979300031793, 31.120119860459525 ], [ 29.972881244479147, 31.112057334234724 ], [ 29.987485942975926, 31.11773673465164 ], [ 29.989005388854682, 31.131479351325108 ], [ 29.975916617360479, 31.139543441347911 ], [ 29.961308926863811, 31.133863350564337 ] ] ] } },
{ "type": "Feature", "properties": { "h3_index": "873f5ba44ffffff", "center_lat": 31.149985580604515, "center_lon": 29.935121532933866, "elevation_m": -4.0 }, "geometry": { "type": "Polygon", "coordinates": [ [ [ 29.922023945778569, 31.158045046711994 ], [ 29.920512708333423, 31.14430086030432 ], [ 29.933608731648285, 31.136241625178236 ], [ 29.948216526828123, 31.141925014660607 ], [ 29.949731287395593, 31.155668332000577 ], [ 29.936634730116225, 31.163729129261451 ], [ 29.922023945778569, 31.158045046711994 ] ] ] } },
{ "type": "Feature", "properties": { "h3_index": "873f5ba6affffff", "center_lat": 31.145221562773045, "center_lon": 29.990525232187839, "elevation_m": -2.0 }, "geometry": { "type": "Polygon", "coordinates": [ [ [ 29.977434899380114, 31.15328588668639 ], [ 29.975916617360479, 31.139543441347911 ], [ 29.989005388854682, 31.131479351325108 ], [ 30.003612967736785, 31.137156143522809 ], [ 30.005134769534045, 31.150897713927755 ], [ 29.992045473129224, 31.158963367403317 ], [ 29.977434899380114, 31.15328588668639 ] ] ] } },
{ "type": "Feature", "properties": { "h3_index": "873f5ba01ffffff", "center_lat": 31.142345170121377, "center_lon": 29.780444918082775, "elevation_m": 0.0 }, "geometry": { "type": "Polygon", "coordinates": [ [ [ 29.767329846365744, 31.150390879892349 ], [ 29.765838601692767, 31.136641357990193 ], [ 29.778952103188665, 31.128595872359753 ], [ 29.793557408831017, 31.134298349852106 ], [ 29.795052184441918, 31.148047018890622 ], [ 29.781938123921073, 31.156094063638101 ], [ 29.767329846365744, 31.150390879892349 ] ] ] } },
{ "type": "Feature", "properties": { "h3_index": "873f5ba43ffffff", "center_lat": 31.106375966746054, "center_lon": 29.958277470218007, "elevation_m": -3.0 }, "geometry": { "type": "Polygon", "coordinates": [ [ [ 29.945188194284679, 31.114437163617335 ], [ 29.943674622002078, 31.10069263309936 ], [ 29.956762336410687, 31.092631671016758 ], [ 29.97136415331024, 31.09831367564497 ], [ 29.972881244479147, 31.112057334234724 ], [ 29.95979300031793, 31.120119860459525 ], [ 29.945188194284679, 31.114437163617335 ] ] ] } },
{ "type": "Feature", "properties": { "h3_index": "873f59682ffffff", "center_lat": 31.244677161388797, "center_lon": 30.043519304657053, "elevation_m": -2.0 }, "geometry": { "type": "Polygon", "coordinates": [ [ [ 30.030422719652943, 31.252746866200564 ], [ 30.028896165785518, 31.239008830425469 ], [ 30.041991188750114, 31.230939355806008 ], [ 30.056613283338823, 31.236606356232887 ], [ 30.058143360872954, 31.250343512504624 ], [ 30.045047820612933, 31.258414548187417 ], [ 30.030422719652943, 31.252746866200564 ] ] ] } },
{ "type": "Feature", "properties": { "h3_index": "873f5ba66ffffff", "center_lat": 31.19359101723299, "center_lon": 29.911944297288329, "elevation_m": 9.0 }, "geometry": { "type": "Polygon", "coordinates": [ [ [ 29.898838393443523, 31.201648733746612 ], [ 29.897329496266, 31.187904908571074 ], [ 29.91043383395181, 31.179847419230821 ], [ 29.925047607456847, 31.18553219527497 ], [ 29.926560031996463, 31.19927515424623 ], [ 29.913455156123831, 31.207334203713742 ], [ 29.898838393443523, 31.201648733746612 ] ] ] } },
{ "type": "Feature", "properties": { "h3_index": "873f5ba6dffffff", "center_lat": 31.184052523448297, "center_lon": 30.022793944205866, "elevation_m": -3.0 }, "geometry": { "type": "Polygon", "coordinates": [ [ [ 30.009702564217502, 31.192119973022553 ], [ 30.008179567620278, 31.178379630269145 ], [ 30.021269386510696, 31.170312413687167 ], [ 30.035882722515765, 31.175983977434111 ], [ 30.037409239774746, 31.189723442252433 ], [ 30.024318900826465, 31.197792221593431 ], [ 30.009702564217502, 31.192119973022553 ] ] ] } },
{ "type": "Feature", "properties": { "h3_index": "873f5ba4affffff", "center_lat": 31.082185817489002, "center_lon": 29.997529738593947, "elevation_m": -3.0 }, "geometry": { "type": "Polygon", "coordinates": [ [ [ 29.984448242966678, 31.090250291997968 ], [ 29.982929988528923, 31.076506469203359 ], [ 29.996009925050696, 31.068442232839946 ], [ 30.01060863959999, 31.074120253802189 ], [ 30.01213040913488, 31.087863200307936 ], [ 29.99904994948044, 31.095929002474666 ], [ 29.984448242966678, 31.090250291997968 ] ] ] } },
{ "type": "Feature", "properties": { "h3_index": "873f59685ffffff", "center_lat": 31.283479631730096, "center_lon": 30.075833614356533, "elevation_m": -1.0 }, "geometry": { "type": "Polygon", "coordinates": [ [ [ 30.062735997421008, 31.291552457421158 ], [ 30.061204717758883, 31.27781656468796 ], [ 30.074300772877908, 31.269743968291415 ], [ 30.088928620542116, 31.275405704599301 ], [ 30.090463424744126, 31.289140714834961 ], [ 30.077366857205213, 31.297214871594601 ], [ 30.062735997421008, 31.291552457421158 ] ] ] } },
{ "type": "Feature", "properties": { "h3_index": "873e66d34ffffff", "center_lat": 31.159843602830666, "center_lon": 30.0620524717406, "elevation_m": -2.0 }, "geometry": { "type": "Polygon", "coordinates": [ [ [ 30.048968898556968, 31.167914336666144 ], [ 30.047441221094697, 31.154174696244233 ], [ 30.060523235609359, 31.146104198755246 ], [ 30.075133441479085, 31.151771777614044 ], [ 30.076664635792749, 31.165510535744367 ], [ 30.063582107846219, 31.173582597641339 ], [ 30.048968898556968, 31.167914336666144 ] ] ] } },
{ "type": "Feature", "properties": { "h3_index": "873f5ba70ffffff", "center_lat": 31.15472667560006, "center_lon": 29.879702942908086, "elevation_m": -3.0 }, "geometry": { "type": "Polygon", "coordinates": [ [ [ 29.866598122490572, 31.162781271738226 ], [ 29.865093936283117, 31.149035356003502 ], [ 29.878197190340199, 31.140980987934224 ], [ 29.892805174080358, 31.146670975131478 ], [ 29.894312886737374, 31.160416027671321 ], [ 29.881209089657656, 31.168471956545147 ], [ 29.866598122490572, 31.162781271738226 ] ] ] } },
{ "type": "Feature", "properties": { "h3_index": "873f5ba4dffffff", "center_lat": 31.121022025751824, "center_lon": 30.029780644689851, "elevation_m": -2.0 }, "geometry": { "type": "Polygon", "coordinates": [ [ [ 30.016698105434504, 31.129089630620697 ], [ 30.015175141898204, 31.11534789030982 ], [ 30.028256122264136, 31.10728052268702 ], [ 30.042860584913008, 31.112953330601435 ], [ 30.044387064427166, 31.126694191620231 ], [ 30.031305565773604, 31.134763124350808 ], [ 30.016698105434504, 31.129089630620697 ] ] ] } },
{ "type": "Feature", "properties": { "h3_index": "873f5ba73ffffff", "center_lat": 31.13292551665505, "center_lon": 29.891297855957738, "elevation_m": -2.0 }, "geometry": { "type": "Polygon", "coordinates": [ [ [ 29.878197190340199, 31.140980987934224 ], [ 29.876691831801363, 31.12723489514045 ], [ 29.889790932216755, 31.119179653834884 ], [ 29.904395932533223, 31.124868943848885 ], [ 29.905904815404782, 31.138614172015604 ], [ 29.892805174080358, 31.146670975131478 ], [ 29.878197190340199, 31.140980987934224 ] ] ] } },
{ "type": "Feature", "properties": { "h3_index": "873f5bb5bffffff", "center_lat": 31.19596129190311, "center_lon": 29.884222566312832, "elevation_m": 6.0 }, "geometry": { "type": "Polygon", "coordinates": [ [ [ 29.871113044695228, 31.204016567543128 ], [ 29.869607676543971, 31.190271879100386 ], [ 29.882715630741636, 31.18221682917692 ], [ 29.897329496266, 31.187904908571074 ], [ 29.898838393443523, 31.201648733746612 ], [ 29.885729896524122, 31.209705343131702 ], [ 29.871113044695228, 31.204016567543128 ] ] ] } },
{ "type": "Feature", "properties": { "h3_index": "873e66d14ffffff", "center_lat": 31.096812676197612, "center_lon": 30.069012665910066, "elevation_m": -3.0 }, "geometry": { "type": "Polygon", "coordinates": [ [ [ 30.055937925515476, 31.104883546854872 ], [ 30.05441028773572, 31.091142521636151 ], [ 30.067483471665881, 31.083071891578445 ], [ 30.08208480551092, 31.088740720315222 ], [ 30.083615955463809, 31.10248086188739 ], [ 30.070542259858893, 31.110553058702777 ], [ 30.055937925515476, 31.104883546854872 ] ] ] } },
{ "type": "Feature", "properties": { "h3_index": "873f5ba50ffffff", "center_lat": 31.091686721536146, "center_lon": 29.886778267269097, "elevation_m": -3.0 }, "geometry": { "type": "Polygon", "coordinates": [ [ [ 29.87368229620062, 31.099741500541658 ], [ 29.872178118833816, 31.085994201923601 ], [ 29.885272525757276, 31.077939655244638 ], [ 29.899871651710757, 31.083630844364563 ], [ 29.901379350838958, 31.097377278430049 ], [ 29.888284402704748, 31.105433388264121 ], [ 29.87368229620062, 31.099741500541658 ] ] ] } },
{ "type": "Feature", "properties": { "h3_index": "873f5ba0affffff", "center_lat": 31.098752327454449, "center_lon": 29.803675803646922, "elevation_m": -3.0 }, "geometry": { "type": "Polygon", "coordinates": [ [ [ 29.790569031354064, 31.106799802987478 ], [ 29.789075429184905, 31.093049928349334 ], [ 29.8021806335713, 31.085002680769769 ], [ 29.816779995356054, 31.090703747028734 ], [ 29.818277124238957, 31.104452765934845 ], [ 29.805171365072315, 31.112501574651134 ], [ 29.790569031354064, 31.106799802987478 ] ] ] } },
{ "type": "Feature", "properties": { "h3_index": "873f5969effffff", "center_lat": 31.203462494647574, "center_lon": 30.038936156463702, "elevation_m": 1.0 }, "geometry": { "type": "Polygon", "coordinates": [ [ [ 30.025844256526906, 31.211531506531706 ], [ 30.024318900826465, 31.197792221593431 ], [ 30.037409239774746, 31.189723442252433 ], [ 30.052025452511426, 31.195392385773527 ], [ 30.053554329312988, 31.2091307912773 ], [ 30.040463472737255, 31.217201133028894 ], [ 30.025844256526906, 31.211531506531706 ] ] ] } },
{ "type": "Feature", "properties": { "h3_index": "873f5ba1dffffff", "center_lat": 31.10109607047729, "center_lon": 29.775967645627116, "elevation_m": 10.0 }, "geometry": { "type": "Polygon", "coordinates": [ [ [ 29.762857283508925, 31.109141105473185 ], [ 29.761367209695532, 31.095390378046641 ], [ 29.774476002656922, 31.087345569544851 ], [ 29.789075429184905, 31.093049928349334 ], [ 29.790569031354064, 31.106799802987478 ], [ 29.777459679087247, 31.11484617194704 ], [ 29.762857283508925, 31.109141105473185 ] ] ] } },
{ "type": "Feature", "properties": { "h3_index": "873f5ba76ffffff", "center_lat": 31.157088619180115, "center_lon": 29.851988094390311, "elevation_m": 4.0 }, "geometry": { "type": "Polygon", "coordinates": [ [ [ 29.838879665266937, 31.165140775781389 ], [ 29.837379007166088, 31.15139399979082 ], [ 29.85048586867164, 31.143342069800905 ], [ 29.865093936283117, 31.149035356003502 ], [ 29.866598122490572, 31.162781271738226 ], [ 29.853490713431757, 31.170834761862949 ], [ 29.838879665266937, 31.165140775781389 ] ] ] } },
{ "type": "Feature", "properties": { "h3_index": "873f5ba40ffffff", "center_lat": 31.128181291335355, "center_lon": 29.946702162508927, "elevation_m": -4.0 }, "geometry": { "type": "Polygon", "coordinates": [ [ [ 29.933608731648285, 31.136241625178236 ], [ 29.932096326106254, 31.122497264575088 ], [ 29.945188194284679, 31.114437163617335 ], [ 29.95979300031793, 31.120119860459525 ], [ 29.961308926863811, 31.133863350564337 ], [ 29.948216526828123, 31.141925014660607 ], [ 29.933608731648285, 31.136241625178236 ] ] ] } },
{ "type": "Feature", "properties": { "h3_index": "873f5ba53ffffff", "center_lat": 31.069884011519875, "center_lon": 29.898364346858315, "elevation_m": -3.0 }, "geometry": { "type": "Polygon", "coordinates": [ [ [ 29.885272525757276, 31.077939655244638 ], [ 29.883767178016868, 31.064192190983505 ], [ 29.896857436129075, 31.056136781489965 ], [ 29.911453581536147, 31.061827272431454 ], [ 29.912962448924745, 31.075573870709249 ], [ 29.899871651710757, 31.083630844364563 ], [ 29.885272525757276, 31.077939655244638 ] ] ] } },
{ "type": "Feature", "properties": { "h3_index": "873f5ba63ffffff", "center_lat": 31.169411241763001, "center_lon": 29.951246444364777, "elevation_m": -4.0 }, "geometry": { "type": "Polygon", "coordinates": [ [ [ 29.938148323348681, 31.17747226955683 ], [ 29.936634730116225, 31.163729129261451 ], [ 29.949731287395593, 31.155668332000577 ], [ 29.964341969907398, 31.16134911357797 ], [ 29.965859086712243, 31.175091383302433 ], [ 29.952761997889166, 31.183153742355888 ], [ 29.938148323348681, 31.17747226955683 ] ] ] } },
{ "type": "Feature", "properties": { "h3_index": "873f5ba0dffffff", "center_lat": 31.137646817912589, "center_lon": 29.835878741882127, "elevation_m": 3.0 }, "geometry": { "type": "Polygon", "coordinates": [ [ [ 29.82277086262641, 31.145697414491416 ], [ 29.821272557722281, 31.131949601260015 ], [ 29.834378869262874, 31.12389923173993 ], [ 29.848984036123415, 31.129595115318313 ], [ 29.85048586867164, 31.143342069800905 ], [ 29.837379007166088, 31.15139399979082 ], [ 29.82277086262641, 31.145697414491416 ] ] ] } },
{ "type": "Feature", "properties": { "h3_index": "873f596b1ffffff", "center_lat": 31.288290736036178, "center_lon": 30.020374709147482, "elevation_m": 0.0 }, "geometry": { "type": "Polygon", "coordinates": [ [ [ 30.007269784893975, 31.296358688658504 ], [ 30.005745559392476, 31.282621039712637 ], [ 30.018848919281229, 31.274553313478854 ], [ 30.033477026637797, 31.28022167745825 ], [ 30.035004780064966, 31.293958449762098 ], [ 30.02190089867074, 31.302027735063696 ], [ 30.007269784893975, 31.296358688658504 ] ] ] } },
{ "type": "Feature", "properties": { "h3_index": "873f5968effffff", "center_lat": 31.239859854304747, "center_lon": 30.098949491959964, "elevation_m": 0.0 }, "geometry": { "type": "Polygon", "coordinates": [ [ [ 30.085860217142489, 31.24793441734429 ], [ 30.084326617633955, 31.234198143502994 ], [ 30.09741433295995, 31.226123813559749 ], [ 30.112036156480773, 31.231784195437005 ], [ 30.113573276267054, 31.245519583922533 ], [ 30.100485052718351, 31.253595476220351 ], [ 30.085860217142489, 31.24793441734429 ] ] ] } },
{ "type": "Feature", "properties": { "h3_index": "873f5bb4bffffff", "center_lat": 31.232440715288181, "center_lon": 29.944206659848554, "elevation_m": 0.0 }, "geometry": { "type": "Polygon", "coordinates": [ [ [ 29.931099682257848, 31.240501550820515 ], [ 29.929586069243481, 31.226759833610203 ], [ 29.942691480880974, 31.218699224355667 ], [ 29.95731103932982, 31.224378773201572 ], [ 29.958828180611661, 31.238119621201879 ], [ 29.945722235633976, 31.246181789902163 ], [ 29.931099682257848, 31.240501550820515 ] ] ] } },
{ "type": "Feature", "properties": { "h3_index": "873f5ba56ffffff", "center_lat": 31.09404764987476, "center_lon": 29.859081126689997, "elevation_m": 2.0 }, "geometry": { "type": "Polygon", "coordinates": [ [ [ 29.845981549929238, 31.102099997416239 ], [ 29.844480895978982, 31.088351837184078 ], [ 29.857578907339185, 31.080299720512279 ], [ 29.872178118833816, 31.085994201923601 ], [ 29.87368229620062, 31.099741500541658 ], [ 29.860583739107536, 31.107795179698829 ], [ 29.845981549929238, 31.102099997416239 ] ] ] } },
{ "type": "Feature", "properties": { "h3_index": "873f59691ffffff", "center_lat": 31.225270376672498, "center_lon": 30.027370011461731, "elevation_m": -1.0 }, "geometry": { "type": "Polygon", "coordinates": [ [ [ 30.014273946076898, 31.233338520521276 ], [ 30.012749753291445, 31.219599419739325 ], [ 30.025844256526906, 31.211531506531706 ], [ 30.040463472737255, 31.217201133028894 ], [ 30.041991188750114, 31.230939355806008 ], [ 30.028896165785518, 31.239008830425469 ], [ 30.014273946076898, 31.233338520521276 ] ] ] } },
{ "type": "Feature", "properties": { "h3_index": "873f5bae5ffffff", "center_lat": 31.074603278223126, "center_lon": 29.842980634590553, "elevation_m": 33.0 }, "geometry": { "type": "Polygon", "coordinates": [ [ [ 29.829881605872973, 31.082654063391285 ], [ 29.828383302392528, 31.068904875978184 ], [ 29.841480765611966, 31.060854322127703 ], [ 29.856077080902946, 31.066551393205465 ], [ 29.857578907339185, 31.080299720512279 ], [ 29.844480895978982, 31.088351837184078 ], [ 29.829881605872973, 31.082654063391285 ] ] ] } },
{ "type": "Feature", "properties": { "h3_index": "873f5ba59ffffff", "center_lat": 31.06276224755441, "center_lon": 29.981412130931034, "elevation_m": -3.0 }, "geometry": { "type": "Polygon", "coordinates": [ [ [ 29.968331160748512, 31.070825156363593 ], [ 29.966815259048953, 31.057080298858505 ], [ 29.979894670019572, 31.04901762864456 ], [ 29.994490508697062, 31.054698250120719 ], [ 29.996009925050696, 31.068442232839946 ], [ 29.982929988528923, 31.076506469203359 ], [ 29.968331160748512, 31.070825156363593 ] ] ] } },
{ "type": "Feature", "properties": { "h3_index": "873f59694ffffff", "center_lat": 31.249471502087697, "center_lon": 29.988074005347965, "elevation_m": 18.0 }, "geometry": { "type": "Polygon", "coordinates": [ [ [ 29.974970131191508, 31.257536336432274 ], [ 29.973450629716982, 31.243796550438848 ], [ 29.986552939292768, 31.235731943379189 ], [ 30.001175277174589, 31.241405562888538 ], [ 30.002698305687357, 31.255144475238119 ], [ 29.98959546973899, 31.263210642057565 ], [ 29.974970131191508, 31.257536336432274 ] ] ] } },
{ "type": "Feature", "properties": { "h3_index": "873f5ba5cffffff", "center_lat": 31.086947701374452, "center_lon": 29.942161445507971, "elevation_m": -2.0 }, "geometry": { "type": "Polygon", "coordinates": [ [ [ 29.929072701640251, 31.095007334209431 ], [ 29.927561482410187, 31.081261767633201 ], [ 29.940648664649213, 31.073202370035943 ], [ 29.955247598742659, 31.078886974864741 ], [ 29.956762336410687, 31.092631671016758 ], [ 29.943674622002078, 31.10069263309936 ], [ 29.929072701640251, 31.095007334209431 ] ] ] } },
{ "type": "Feature", "properties": { "h3_index": "873f5969bffffff", "center_lat": 31.179248883802636, "center_lon": 30.078196230584606, "elevation_m": 2.0 }, "geometry": { "type": "Polygon", "coordinates": [ [ [ 30.065112144080981, 31.187321181596261 ], [ 30.063582107846219, 31.173582597641339 ], [ 30.076664635792749, 31.165510535744367 ], [ 30.091277711435851, 31.171175494079581 ], [ 30.092811264956065, 31.184913194244565 ], [ 30.079728226009586, 31.192986820198026 ], [ 30.065112144080981, 31.187321181596261 ] ] ] } },
{ "type": "Feature", "properties": { "h3_index": "873f5ba19ffffff", "center_lat": 31.079299655033065, "center_lon": 29.787582217860002, "elevation_m": -3.0 }, "geometry": { "type": "Polygon", "coordinates": [ [ [ 29.774476002656922, 31.087345569544851 ], [ 29.772984750025426, 31.073594670744317 ], [ 29.786089397228007, 31.065548984633317 ], [ 29.800685854693899, 31.071252636191517 ], [ 29.8021806335713, 31.085002680769769 ], [ 29.789075429184905, 31.093049928349334 ], [ 29.774476002656922, 31.087345569544851 ] ] ] } },
{ "type": "Feature", "properties": { "h3_index": "873f5969affffff", "center_lat": 31.181653567039561, "center_lon": 30.050496975644332, "elevation_m": -1.0 }, "geometry": { "type": "Polygon", "coordinates": [ [ [ 30.037409239774746, 31.189723442252433 ], [ 30.035882722515765, 31.175983977434111 ], [ 30.048968898556968, 31.167914336666144 ], [ 30.063582107846219, 31.173582597641339 ], [ 30.065112144080981, 31.187321181596261 ], [ 30.052025452511426, 31.195392385773527 ], [ 30.037409239774746, 31.189723442252433 ] ] ] } },
{ "type": "Feature", "properties": { "h3_index": "873f5ba62ffffff", "center_lat": 31.171788825566253, "center_lon": 29.923535578768643, "elevation_m": -4.0 }, "geometry": { "type": "Polygon", "coordinates": [ [ [ 29.91043383395181, 31.179847419230821 ], [ 29.908923765961095, 31.166103411299076 ], [ 29.922023945778569, 31.158045046711994 ], [ 29.936634730116225, 31.163729129261451 ], [ 29.938148323348681, 31.17747226955683 ], [ 29.925047607456847, 31.18553219527497 ], [ 29.91043383395181, 31.179847419230821 ] ] ] } },
{ "type": "Feature", "properties": { "h3_index": "873f5969dffffff", "center_lat": 31.220461451638329, "center_lon": 30.082793419379112, "elevation_m": 0.0 }, "geometry": { "type": "Polygon", "coordinates": [ [ [ 30.069704655108854, 31.228534452420231 ], [ 30.068173417557343, 31.214797110576047 ], [ 30.081260622222722, 31.20672434334001 ], [ 30.095879575562858, 31.212387355574826 ], [ 30.09741433295995, 31.226123813559749 ], [ 30.084326617633955, 31.234198143502994 ], [ 30.069704655108854, 31.228534452420231 ] ] ] } },
{ "type": "Feature", "properties": { "h3_index": "873f5ba65ffffff", "center_lat": 31.210637509666494, "center_lon": 29.955794295217995, "elevation_m": 3.0 }, "geometry": { "type": "Polygon", "coordinates": [ [ [ 29.942691480880974, 31.218699224355667 ], [ 29.941176698577546, 31.204957318695485 ], [ 29.954277948122357, 31.196895832187533 ], [ 29.968894511656497, 31.20257469122787 ], [ 29.970412820103519, 31.216315726246108 ], [ 29.95731103932982, 31.224378773201572 ], [ 29.942691480880974, 31.218699224355667 ] ] ] } },
{ "type": "Feature", "properties": { "h3_index": "873f5ba60ffffff", "center_lat": 31.191214999898733, "center_lon": 29.939662312784634, "elevation_m": 6.0 }, "geometry": { "type": "Polygon", "coordinates": [ [ [ 29.926560031996463, 31.19927515424623 ], [ 29.925047607456847, 31.18553219527497 ], [ 29.938148323348681, 31.17747226955683 ], [ 29.952761997889166, 31.183153742355888 ], [ 29.954277948122357, 31.196895832187533 ], [ 29.941176698577546, 31.204957318695485 ], [ 29.926560031996463, 31.19927515424623 ] ] ] } },
{ "type": "Feature", "properties": { "h3_index": "873f5ba42ffffff", "center_lat": 31.108752500387819, "center_lon": 29.930584316154601, "elevation_m": -4.0 }, "geometry": { "type": "Polygon", "coordinates": [ [ [ 29.917491419465463, 31.116811271198756 ], [ 29.915981367736624, 31.10306587168651 ], [ 29.929072701640251, 31.095007334209431 ], [ 29.943674622002078, 31.10069263309936 ], [ 29.945188194284679, 31.114437163617335 ], [ 29.932096326106254, 31.122497264575088 ], [ 29.917491419465463, 31.116811271198756 ] ] ] } },
{ "type": "Feature", "properties": { "h3_index": "873f5ba68ffffff", "center_lat": 31.16463887670708, "center_lon": 30.006656969443842, "elevation_m": 0.0 }, "geometry": { "type": "Polygon", "coordinates": [ [ [ 29.993566111832738, 31.172704763624061 ], [ 29.992045473129224, 31.158963367403317 ], [ 30.005134769534045, 31.150897713927755 ], [ 30.019745227586586, 31.156571893901191 ], [ 30.021269386510696, 31.170312413687167 ], [ 30.008179567620278, 31.178379630269145 ], [ 29.993566111832738, 31.172704763624061 ] ] ] } },
{ "type": "Feature", "properties": { "h3_index": "873f5ba45ffffff", "center_lat": 31.147606435467925, "center_lon": 29.962825250009121, "elevation_m": -3.0 }, "geometry": { "type": "Polygon", "coordinates": [ [ [ 29.949731287395593, 31.155668332000577 ], [ 29.948216526828123, 31.141925014660607 ], [ 29.961308926863811, 31.133863350564337 ], [ 29.975916617360479, 31.139543441347911 ], [ 29.977434899380114, 31.15328588668639 ], [ 29.964341969907398, 31.16134911357797 ], [ 29.949731287395593, 31.155668332000577 ] ] ] } },
{ "type": "Feature", "properties": { "h3_index": "873f596a3ffffff", "center_lat": 31.3052879257969, "center_lon": 30.064267678102929, "elevation_m": 6.0 }, "geometry": { "type": "Polygon", "coordinates": [ [ [ 30.051165888025817, 31.313359875753225 ], [ 30.049635770323999, 31.299624179984086 ], [ 30.062735997421008, 31.291552457421158 ], [ 30.077366857205213, 31.297214871594601 ], [ 30.078900501579422, 31.310949686296411 ], [ 30.065799759960008, 31.319022968226701 ], [ 30.051165888025817, 31.313359875753225 ] ] ] } },
{ "type": "Feature", "properties": { "h3_index": "873f59680ffffff", "center_lat": 31.264080249186094, "center_lon": 30.059673838961267, "elevation_m": 1.0 }, "geometry": { "type": "Polygon", "coordinates": [ [ [ 30.046576736772693, 31.272151514612318 ], [ 30.045047820612933, 31.258414548187417 ], [ 30.058143360872954, 31.250343512504624 ], [ 30.072768332613947, 31.256007882867436 ], [ 30.074300772877908, 31.269743968291415 ], [ 30.061204717758883, 31.27781656468796 ], [ 30.046576736772693, 31.272151514612318 ] ] ] } },
{ "type": "Feature", "properties": { "h3_index": "873f5baecffffff", "center_lat": 31.050444330346942, "center_lon": 29.882262223895488, "elevation_m": -3.0 }, "geometry": { "type": "Polygon", "coordinates": [ [ [ 29.869170944205656, 31.058498410019581 ], [ 29.86766794663987, 31.044749919922165 ], [ 29.880757663240843, 31.036696074929402 ], [ 29.895350919370564, 31.042389155869085 ], [ 29.896857436129075, 31.056136781489965 ], [ 29.883767178016868, 31.064192190983505 ], [ 29.869170944205656, 31.058498410019581 ] ] ] } },
{ "type": "Feature", "properties": { "h3_index": "873f5ba6bffffff", "center_lat": 31.142830965681803, "center_lon": 30.018221467279254, "elevation_m": -2.0 }, "geometry": { "type": "Polygon", "coordinates": [ [ [ 30.005134769534045, 31.150897713927755 ], [ 30.003612967736785, 31.137156143522809 ], [ 30.016698105434504, 31.129089630620697 ], [ 30.031305565773604, 31.134763124350808 ], [ 30.032830885669618, 31.14850381689196 ], [ 30.019745227586586, 31.156571893901191 ], [ 30.005134769534045, 31.150897713927755 ] ] ] } },
{ "type": "Feature", "properties": { "h3_index": "873f5ba48ffffff", "center_lat": 31.101605746341402, "center_lon": 30.013652576516321, "elevation_m": -2.0 }, "geometry": { "type": "Polygon", "coordinates": [ [ [ 30.000570557863877, 31.109671786203947 ], [ 29.99904994948044, 31.095929002474666 ], [ 30.01213040913488, 31.087863200307936 ], [ 30.026731998342303, 31.093538616748667 ], [ 30.028256122264136, 31.10728052268702 ], [ 30.015175141898204, 31.11534789030982 ], [ 30.000570557863877, 31.109671786203947 ] ] ] } },
{ "type": "Feature", "properties": { "h3_index": "873f59683ffffff", "center_lat": 31.242271377047238, "center_lon": 30.071236293409346, "elevation_m": 0.0 }, "geometry": { "type": "Polygon", "coordinates": [ [ [ 30.058143360872954, 31.250343512504624 ], [ 30.056613283338823, 31.236606356232887 ], [ 30.069704655108854, 31.228534452420231 ], [ 30.084326617633955, 31.234198143502994 ], [ 30.085860217142489, 31.24793441734429 ], [ 30.072768332613947, 31.256007882867436 ], [ 30.058143360872954, 31.250343512504624 ] ] ] } },
{ "type": "Feature", "properties": { "h3_index": "873e66d32ffffff", "center_lat": 31.118624169175654, "center_lon": 30.057465962651364, "elevation_m": -2.0 }, "geometry": { "type": "Polygon", "coordinates": [ [ [ 30.044387064427166, 31.126694191620231 ], [ 30.042860584913008, 31.112953330601435 ], [ 30.055937925515476, 31.104883546854872 ], [ 30.070542259858893, 31.110553058702777 ], [ 30.072072253666907, 31.124293037501769 ], [ 30.058994399297813, 31.13236438700639 ], [ 30.044387064427166, 31.126694191620231 ] ] ] } },
{ "type": "Feature", "properties": { "h3_index": "873f59698ffffff", "center_lat": 31.201059353104654, "center_lon": 30.066642580599716, "elevation_m": 1.0 }, "geometry": { "type": "Polygon", "coordinates": [ [ [ 30.053554329312988, 31.2091307912773 ], [ 30.052025452511426, 31.195392385773527 ], [ 30.065112144080981, 31.187321181596261 ], [ 30.079728226009586, 31.192986820198026 ], [ 30.081260622222722, 31.20672434334001 ], [ 30.068173417557343, 31.214797110576047 ], [ 30.053554329312988, 31.2091307912773 ] ] ] } },
{ "type": "Feature", "properties": { "h3_index": "873f5ba6effffff", "center_lat": 31.167027924423252, "center_lon": 29.978953578657325, "elevation_m": -3.0 }, "geometry": { "type": "Polygon", "coordinates": [ [ [ 29.965859086712243, 31.175091383302433 ], [ 29.964341969907398, 31.16134911357797 ], [ 29.977434899380114, 31.15328588668639 ], [ 29.992045473129224, 31.158963367403317 ], [ 29.993566111832738, 31.172704763624061 ], [ 29.980472655345913, 31.18076955296667 ], [ 29.965859086712243, 31.175091383302433 ] ] ] } },
{ "type": "Feature", "properties": { "h3_index": "873f5ba4bffffff", "center_lat": 31.0797963095293, "center_lon": 30.025208272770278, "elevation_m": -3.0 }, "geometry": { "type": "Polygon", "coordinates": [ [ [ 30.01213040913488, 31.087863200307936 ], [ 30.01060863959999, 31.074120253802189 ], [ 30.023684945394056, 31.066053602621722 ], [ 30.038283539797106, 31.071728331823294 ], [ 30.0398088227522, 31.08547039911052 ], [ 30.026731998342303, 31.093538616748667 ], [ 30.01213040913488, 31.087863200307936 ] ] ] } },
{ "type": "Feature", "properties": { "h3_index": "873f59686ffffff", "center_lat": 31.266484482407989, "center_lon": 30.031949673218758, "elevation_m": 0.0 }, "geometry": { "type": "Polygon", "coordinates": [ [ [ 30.018848919281229, 31.274553313478854 ], [ 30.017323528917181, 31.260815468980923 ], [ 30.030422719652943, 31.252746866200564 ], [ 30.045047820612933, 31.258414548187417 ], [ 30.046576736772693, 31.272151514612318 ], [ 30.033477026637797, 31.28022167745825 ], [ 30.018848919281229, 31.274553313478854 ] ] ] } },
{ "type": "Feature", "properties": { "h3_index": "873f5ba5dffffff", "center_lat": 31.084569615823547, "center_lon": 29.969847458784496, "elevation_m": -1.0 }, "geometry": { "type": "Polygon", "coordinates": [ [ [ 29.956762336410687, 31.092631671016758 ], [ 29.955247598742659, 31.078886974864741 ], [ 29.968331160748512, 31.070825156363593 ], [ 29.982929988528923, 31.076506469203359 ], [ 29.984448242966678, 31.090250291997968 ], [ 29.97136415331024, 31.09831367564497 ], [ 29.956762336410687, 31.092631671016758 ] ] ] } },
{ "type": "Feature", "properties": { "h3_index": "873e66d35ffffff", "center_lat": 31.157437383035365, "center_lon": 30.089744558897575, "elevation_m": 1.0 }, "geometry": { "type": "Polygon", "coordinates": [ [ [ 30.076664635792749, 31.165510535744367 ], [ 30.075133441479085, 31.151771777614044 ], [ 30.088211807186166, 31.143698862702788 ], [ 30.102821876575661, 31.14936314120116 ], [ 30.104356586049612, 31.163101014114162 ], [ 30.091277711435851, 31.171175494079581 ], [ 30.076664635792749, 31.165510535744367 ] ] ] } },
{ "type": "Feature", "properties": { "h3_index": "873f5ba71ffffff", "center_lat": 31.152358995029886, "center_lon": 29.907414093163098, "elevation_m": -4.0 }, "geometry": { "type": "Polygon", "coordinates": [ [ [ 29.894312886737374, 31.160416027671321 ], [ 29.892805174080358, 31.146670975131478 ], [ 29.905904815404782, 31.138614172015604 ], [ 29.920512708333423, 31.14430086030432 ], [ 29.922023945778569, 31.158045046711994 ], [ 29.908923765961095, 31.166103411299076 ], [ 29.894312886737374, 31.160416027671321 ] ] ] } },
{ "type": "Feature", "properties": { "h3_index": "873e66d12ffffff", "center_lat": 31.055589122367959, "center_lon": 30.064426281673576, "elevation_m": 0.0 }, "geometry": { "type": "Polygon", "coordinates": [ [ [ 30.051356209627173, 31.063659268874595 ], [ 30.049829768989891, 31.049917044517262 ], [ 30.062898285616747, 31.041847140962251 ], [ 30.077493755350737, 31.047517893988282 ], [ 30.079023705608929, 31.061259234773093 ], [ 30.065954676971845, 31.069330706437661 ], [ 30.051356209627173, 31.063659268874595 ] ] ] } },
{ "type": "Feature", "properties": { "h3_index": "873f5ba4effffff", "center_lat": 31.103993714345037, "center_lon": 29.985966894397816, "elevation_m": -3.0 }, "geometry": { "type": "Polygon", "coordinates": [ [ [ 29.972881244479147, 31.112057334234724 ], [ 29.97136415331024, 31.09831367564497 ], [ 29.984448242966678, 31.090250291997968 ], [ 29.99904994948044, 31.095929002474666 ], [ 30.000570557863877, 31.109671786203947 ], [ 29.987485942975926, 31.11773673465164 ], [ 29.972881244479147, 31.112057334234724 ] ] ] } },
{ "type": "Feature", "properties": { "h3_index": "873f5ba08ffffff", "center_lat": 31.118201384543255, "center_lon": 29.819774644977095, "elevation_m": -3.0 }, "geometry": { "type": "Polygon", "coordinates": [ [ [ 29.806667317999121, 31.126250420765654 ], [ 29.805171365072315, 31.112501574651134 ], [ 29.818277124238957, 31.104452765934845 ], [ 29.832879389156258, 31.110151242866287 ], [ 29.834378869262874, 31.12389923173993 ], [ 29.821272557722281, 31.131949601260015 ], [ 29.806667317999121, 31.126250420765654 ] ] ] } },
{ "type": "Feature", "properties": { "h3_index": "873f5ba74ffffff", "center_lat": 31.176526779968022, "center_lon": 29.868102702526649, "elevation_m": 0.0 }, "geometry": { "type": "Polygon", "coordinates": [ [ [ 29.854993725948411, 31.184580496256718 ], [ 29.853490713431757, 31.170834761862949 ], [ 29.866598122490572, 31.162781271738226 ], [ 29.881209089657656, 31.168471956545147 ], [ 29.882715630741636, 31.18221682917692 ], [ 29.869607676543971, 31.190271879100386 ], [ 29.854993725948411, 31.184580496256718 ] ] ] } },
{ "type": "Feature", "properties": { "h3_index": "873e66d15ffffff", "center_lat": 31.094407580415414, "center_lon": 30.096687048881449, "elevation_m": 2.0 }, "geometry": { "type": "Polygon", "coordinates": [ [ [ 30.083615955463809, 31.10248086188739 ], [ 30.08208480551092, 31.088740720315222 ], [ 30.095154343733476, 31.080667680893384 ], [ 30.109755539528489, 31.086333215972871 ], [ 30.111290199965367, 31.100072470973323 ], [ 30.098220154584762, 31.108147077799032 ], [ 30.083615955463809, 31.10248086188739 ] ] ] } },
{ "type": "Feature", "properties": { "h3_index": "873f5ba51ffffff", "center_lat": 31.089320070992176, "center_lon": 29.91447171094066, "elevation_m": -3.0 }, "geometry": { "type": "Polygon", "coordinates": [ [ [ 29.901379350838958, 31.097377278430049 ], [ 29.899871651710757, 31.083630844364563 ], [ 29.912962448924745, 31.075573870709249 ], [ 29.927561482410187, 31.081261767633201 ], [ 29.929072701640251, 31.095007334209431 ], [ 29.915981367736624, 31.10306587168651 ], [ 29.901379350838958, 31.097377278430049 ] ] ] } },
{ "type": "Feature", "properties": { "h3_index": "873f5ba0bffffff", "center_lat": 31.096402852885401, "center_lon": 29.831380301410263, "elevation_m": -3.0 }, "geometry": { "type": "Polygon", "coordinates": [ [ [ 29.818277124238957, 31.104452765934845 ], [ 29.816779995356054, 31.090703747028734 ], [ 29.829881605872973, 31.082654063391285 ], [ 29.844480895978982, 31.088351837184078 ], [ 29.845981549929238, 31.102099997416239 ], [ 29.832879389156258, 31.110151242866287 ], [ 29.818277124238957, 31.104452765934845 ] ] ] } },
{ "type": "Feature", "properties": { "h3_index": "873f5bb49ffffff", "center_lat": 31.251860052076804, "center_lon": 29.960345719217401, "elevation_m": 0.0 }, "geometry": { "type": "Polygon", "coordinates": [ [ [ 29.947238208391045, 31.25992244660705 ], [ 29.945722235633976, 31.246181789902163 ], [ 29.958828180611661, 31.238119621201879 ], [ 29.973450629716982, 31.243796550438848 ], [ 29.974970131191508, 31.257536336432274 ], [ 29.961863655301016, 31.265600064235954 ], [ 29.947238208391045, 31.25992244660705 ] ] ] } },
{ "type": "Feature", "properties": { "h3_index": "873e66da4ffffff", "center_lat": 31.060376908417158, "center_lon": 30.009087267757845, "elevation_m": -3.0 }, "geometry": { "type": "Polygon", "coordinates": [ [ [ 29.996009925050696, 31.068442232839946 ], [ 29.994490508697062, 31.054698250120719 ], [ 30.007566293454715, 31.046633165746158 ], [ 30.022162016059731, 31.052310497619001 ], [ 30.023684945394056, 31.066053602621722 ], [ 30.01060863959999, 31.074120253802189 ], [ 29.996009925050696, 31.068442232839946 ] ] ] } },
{ "type": "Feature", "properties": { "h3_index": "873f59695ffffff", "center_lat": 31.247077204131813, "center_lon": 30.015798537900622, "elevation_m": 12.0 }, "geometry": { "type": "Polygon", "coordinates": [ [ [ 30.002698305687357, 31.255144475238119 ], [ 30.001175277174589, 31.241405562888538 ], [ 30.014273946076898, 31.233338520521276 ], [ 30.028896165785518, 31.239008830425469 ], [ 30.030422719652943, 31.252746866200564 ], [ 30.017323528917181, 31.260815468980923 ], [ 30.002698305687357, 31.255144475238119 ] ] ] } },
{ "type": "Feature", "properties": { "h3_index": "873f5bae0ffffff", "center_lat": 31.055155292240627, "center_lon": 29.826885390817164, "elevation_m": 27.0 }, "geometry": { "type": "Polygon", "coordinates": [ [ [ 29.813786912549038, 31.063204514700544 ], [ 29.812290958321679, 31.049454304467673 ], [ 29.825387870995172, 31.041405313773424 ], [ 29.839981288891348, 31.047104970492384 ], [ 29.841480765611966, 31.060854322127703 ], [ 29.828383302392528, 31.068904875978184 ], [ 29.813786912549038, 31.063204514700544 ] ] ] } },
{ "type": "Feature", "properties": { "h3_index": "873f5ba54ffffff", "center_lat": 31.113488398811807, "center_lon": 29.875186867139, "elevation_m": -3.0 }, "geometry": { "type": "Polygon", "coordinates": [ [ [ 29.862086744744012, 31.121542308390648 ], [ 29.860583739107536, 31.107795179698829 ], [ 29.87368229620062, 31.099741500541658 ], [ 29.888284402704748, 31.105433388264121 ], [ 29.889790932216755, 31.119179653834884 ], [ 29.876691831801363, 31.12723489514045 ], [ 29.862086744744012, 31.121542308390648 ] ] ] } },
{ "type": "Feature", "properties": { "h3_index": "873f5ba0effffff", "center_lat": 31.120549277353103, "center_lon": 29.792063024518921, "elevation_m": 6.0 }, "geometry": { "type": "Polygon", "coordinates": [ [ [ 29.778952103188665, 31.128595872359753 ], [ 29.777459679087247, 31.11484617194704 ], [ 29.790569031354064, 31.106799802987478 ], [ 29.805171365072315, 31.112501574651134 ], [ 29.806667317999121, 31.126250420765654 ], [ 29.793557408831017, 31.134298349852106 ], [ 29.778952103188665, 31.128595872359753 ] ] ] } },
{ "type": "Feature", "properties": { "h3_index": "873f59692ffffff", "center_lat": 31.208251576107308, "center_lon": 29.983512001572816, "elevation_m": -3.0 }, "geometry": { "type": "Polygon", "coordinates": [ [ [ 29.970412820103519, 31.216315726246108 ], [ 29.968894511656497, 31.20257469122787 ], [ 29.98199212959976, 31.194510770725117 ], [ 29.996608583142198, 31.200186324470859 ], [ 29.998130416056348, 31.213926485914541 ], [ 29.985032271419115, 31.22199196752225 ], [ 29.970412820103519, 31.216315726246108 ] ] ] } },
{ "type": "Feature", "properties": { "h3_index": "873f5bae6ffffff", "center_lat": 31.057502195314392, "center_lon": 29.799191466863245, "elevation_m": 1.0 }, "geometry": { "type": "Polygon", "coordinates": [ [ [ 29.786089397228007, 31.065548984633317 ], [ 29.784596967137613, 31.051797918745009 ], [ 29.797697469927936, 31.043751359733367 ], [ 29.812290958321679, 31.049454304467673 ], [ 29.813786912549038, 31.063204514700544 ], [ 29.800685854693899, 31.071252636191517 ], [ 29.786089397228007, 31.065548984633317 ] ] ] } }
]
}
